[{"OBJECT_NAME":"STARLINK-30900","OBJECT_ID":"2023-180X","EPOCH":"2026-03-09T00:15:23.539104","MEAN_MOTION":15.27578512,"ECCENTRICITY":0.0001163,"INCLINATION":43.0002,"RA_OF_ASC_NODE":56.1942,"ARG_OF_PERICENTER":267.6681,"MEAN_ANOMALY":92.4038,"EPHEMERIS_TYPE":0,"CLASSIFICATION_TYPE":"U","NORAD_CAT_ID":58423,"ELEMENT_SET_NO":999,"REV_AT_EPOCH":12741,"BSTAR":-0.00010881194,"MEAN_MOTION_DOT":-3.255e-5,"MEAN_MOTION_DDOT":0},{"OBJECT_NAME":"OBJECT B","OBJECT_ID":"2024-203B","EPOCH":"2026-03-09T23:52:52.928256","MEAN_MOTION":15.27506959,"ECCENTRICITY":0.00103904,"INCLINATION":97.4268,"RA_OF_ASC_NODE":139.5887,"ARG_OF_PERICENTER":321.1475,"MEAN_ANOMALY":38.9016,"EPHEMERIS_TYPE":0,"CLASSIFICATION_TYPE":"U","NORAD_CAT_ID":61870,"ELEMENT_SET_NO":999,"REV_AT_EPOCH":7381,"BSTAR":0.00063263842,"MEAN_MOTION_DOT":0.00016997,"MEAN_MOTION_DDOT":0}]
